[
{
"absolute_magnitude": "2.18",
"aphelion_distance": "48.06",
"arc_length": 26094,
"argument_of_perihelion": "73.46068",
"ascending_node": "268.5358814",
"delta_v": 13.1,
"designation": null,
"earth_moid": 29.2247,
"eccentricity": "0.2286225",
"epoch": "2023-02-25.0",
"epoch_jd": "2460000.5",
"first_observation_date_used": "1951-11-08.0",
"first_opposition_used": "1951",
"inclination": "20.56758",
"jupiter_moid": 25.556,
"last_observation_date_used": "2023-04-18.0",
"last_opposition_used": "2023",
"mars_moid": 28.8915,
"mean_anomaly": "184.36699",
"mean_daily_motion": "0.0040287",
"mercury_moid": 29.8267,
"name": "Orcus",
"number": 90482,
"observations": 1281,
"oppositions": 29,
"orbit_type": 10,
"orbit_uncertainty": "1",
"p_vector_x": "0.88995371",
"p_vector_y": "-0.41609941",
"p_vector_z": "0.18666463",
"perihelion_date": "1897-11-08.15995",
"perihelion_date_jd": "2414236.65995",
"perihelion_distance": "30.1737361",
"period": "244.65",
"phase_slope": "0.15",
"q_vector_x": "0.2909345",
"q_vector_y": "0.8332043",
"q_vector_z": "0.47024219",
"residual_rms": "0.68",
"saturn_moid": 21.2704,
"semimajor_axis": "39.11669",
"tisserand_jupiter": 5.1,
"updated_at": "2023-07-19T20:00:16Z",
"uranus_moid": 12.674,
"venus_moid": 29.5056
},
{
"absolute_magnitude": "4.23",
"aphelion_distance": "46.596",
"arc_length": 15098,
"argument_of_perihelion": "312.36858",
"ascending_node": "280.1451611",
"delta_v": 13.9,
"designation": null,
"earth_moid": 37.1108,
"eccentricity": "0.1006133",
"epoch": "2023-09-13.0",
"epoch_jd": "2460200.5",
"first_observation_date_used": "1982-07-25.0",
"first_opposition_used": "1982",
"inclination": "23.92649",
"jupiter_moid": 32.9816,
"last_observation_date_used": "2023-11-25.0",
"last_opposition_used": "2023",
"mars_moid": 36.606,
"mean_anomaly": "127.60788",
"mean_daily_motion": "0.003578",
"mercury_moid": 37.634,
"name": "Salacia",
"number": 120347,
"observations": 371,
"oppositions": 25,
"orbit_type": 10,
"orbit_uncertainty": "2",
"p_vector_x": "-0.54607409",
"p_vector_y": "-0.59857056",
"p_vector_z": "-0.5861027",
"perihelion_date": "1926-01-20.08541",
"perihelion_date_jd": "2424535.58541",
"perihelion_distance": "38.0766139",
"period": "275.47",
"phase_slope": "0.15",
"q_vector_x": "0.73649441",
"q_vector_y": "-0.67642784",
"q_vector_z": "0.00462254",
"residual_rms": "0.66",
"saturn_moid": 28.5283,
"semimajor_axis": "42.3362",
"tisserand_jupiter": 5.3,
"updated_at": "2023-11-26T12:31:34Z",
"uranus_moid": 19.3901,
"venus_moid": 37.3898
},
{
"absolute_magnitude": "3.62",
"aphelion_distance": "47.945",
"arc_length": 24924,
"argument_of_perihelion": "212.53455",
"ascending_node": "216.2250426",
"delta_v": 13.0,
"designation": null,
"earth_moid": 34.9007,
"eccentricity": "0.1440325",
"epoch": "2022-08-09.0",
"epoch_jd": "2459800.5",
"first_observation_date_used": "1954-04-08.0",
"first_opposition_used": "1954",
"inclination": "17.70697",
"jupiter_moid": 30.8916,
"last_observation_date_used": "2022-07-04.0",
"last_opposition_used": "2022",
"mars_moid": 34.3769,
"mean_anomaly": "228.38075",
"mean_daily_motion": "0.0036328",
"mercury_moid": 35.5701,
"name": null,
"number": 307261,
"observations": 131,
"oppositions": 21,
"orbit_type": 10,
"orbit_uncertainty": "3",
"p_vector_x": "0.37733904",
"p_vector_y": "0.9013642",
"p_vector_z": "0.21250371",
"perihelion_date": "2121-10-19.42286",
"perihelion_date_jd": "2496030.92286",
"perihelion_distance": "35.8725722",
"period": "271.31",
"phase_slope": "0.15",
"q_vector_x": "-0.9084652",
"q_vector_y": "0.40482299",
"q_vector_z": "-0.10396792",
"residual_rms": "0.46",
"saturn_moid": 26.8365,
"semimajor_axis": "41.9088",
"tisserand_jupiter": 5.5,
"updated_at": "2022-11-19T08:11:57Z",
"uranus_moid": 16.5609,
"venus_moid": 35.16
},
{
"absolute_magnitude": "3.46",
"aphelion_distance": "52.611",
"arc_length": 15052,
"argument_of_perihelion": "181.49458",
"ascending_node": "184.2749263",
"delta_v": 13.4,
"designation": null,
"earth_moid": 38.5862,
"eccentricity": "0.1452213",
"epoch": "2022-01-21.0",
"epoch_jd": "2459600.5",
"first_observation_date_used": "1980-03-19.0",
"first_opposition_used": "1980",
"inclination": "21.51973",
"jupiter_moid": 34.6373,
"last_observation_date_used": "2021-06-04.0",
"last_opposition_used": "2021",
"mars_moid": 38.1922,
"mean_anomaly": "275.76568",
"mean_daily_motion": "0.0031654",
"mercury_moid": 39.2334,
"name": "Varda",
"number": 174567,
"observations": 261,
"oppositions": 25,
"orbit_type": 10,
"orbit_uncertainty": "3",
"p_vector_x": "0.99506988",
"p_vector_y": "0.09437384",
"p_vector_z": "0.03048797",
"perihelion_date": "2094-11-30.29588",
"perihelion_date_jd": "2486211.79588",
"perihelion_distance": "39.2681917",
"period": "311.37",
"phase_slope": "0.15",
"q_vector_x": "-0.09533235",
"q_vector_y": "0.99494118",
"q_vector_z": "0.03168251",
"residual_rms": "0.52",
"saturn_moid": 30.043,
"semimajor_axis": "45.9396",
"tisserand_jupiter": 5.6,
"updated_at": "2022-06-02T16:05:29Z",
"uranus_moid": 19.541,
"venus_moid": 38.8637
},
{
"absolute_magnitude": "3.47",
"aphelion_distance": "52.838",
"arc_length": 9208,
"argument_of_perihelion": "297.70731",
"ascending_node": "297.5120014",
"delta_v": 13.8,
"designation": null,
"earth_moid": 40.0928,
"eccentricity": "0.1257503",
"epoch": "2023-02-25.0",
"epoch_jd": "2460000.5",
"first_observation_date_used": "1997-12-29.0",
"first_opposition_used": "1997",
"inclination": "24.40431",
"jupiter_moid": 36.1006,
"last_observation_date_used": "2023-03-16.0",
"last_opposition_used": "2023",
"mars_moid": 39.6049,
"mean_anomaly": "297.00768",
"mean_daily_motion": "0.0030651",
"mercury_moid": 40.5992,
"name": null,
"number": 55565,
"observations": 513,
"oppositions": 22,
"orbit_type": 10,
"orbit_uncertainty": "2",
"p_vector_x": "-0.50027976",
"p_vector_y": "-0.57453593",
"p_vector_z": "-0.64778748",
"perihelion_date": "2079-06-02.28333",
"perihelion_date_jd": "2480551.78333",
"perihelion_distance": "41.03354",
"period": "321.55",
"phase_slope": "0.15",
"q_vector_x": "0.78449691",
"q_vector_y": "-0.61738757",
"q_vector_z": "-0.05828544",
"residual_rms": "0.49",
"saturn_moid": 31.845,
"semimajor_axis": "46.93572",
"tisserand_jupiter": 5.5,
"updated_at": "2023-07-19T19:58:39Z",
"uranus_moid": 22.9847,
"venus_moid": 40.3643
},
{
"absolute_magnitude": "3.12",
"aphelion_distance": "81.907",
"arc_length": 4395,
"argument_of_perihelion": "139.77036",
"ascending_node": "186.9220301",
"delta_v": 14.2,
"designation": null,
"earth_moid": 34.2554,
"eccentricity": "0.3988361",
"epoch": "2023-02-25.0",
"epoch_jd": "2460000.5",
"first_observation_date_used": "2011-03-15.0",
"first_opposition_used": "2011",
"inclination": "33.28975",
"jupiter_moid": 30.5709,
"last_observation_date_used": "2023-03-27.0",
"last_opposition_used": "2023",
"mars_moid": 33.9263,
"mean_anomaly": "215.90758",
"mean_daily_motion": "0.0021997",
"mercury_moid": 34.8468,
"name": null,
"number": 532037,
"observations": 126,
"oppositions": 11,
"orbit_type": 10,
"orbit_uncertainty": "4",
"p_vector_x": "0.82296173",
"p_vector_y": "-0.54830227",
"p_vector_z": "0.148656",
"perihelion_date": "2202-07-01.45722",
"perihelion_date_jd": "2525504.95722",
"perihelion_distance": "35.2004831",
"period": "448.06",
"phase_slope": "0.15",
"q_vector_x": "0.56423244",
"q_vector_y": "0.81935318",
"q_vector_z": "-0.10149941",
"residual_rms": "0.68",
"saturn_moid": 26.2663,
"semimajor_axis": "58.55388",
"tisserand_jupiter": 5.2,
"updated_at": "2023-04-21T05:35:36Z",
"uranus_moid": 16.5833,
"venus_moid": 34.5365
},
{
"absolute_magnitude": "3.76",
"aphelion_distance": "46.415",
"arc_length": 10108,
"argument_of_perihelion": "16.04559",
"ascending_node": "251.9008083",
"delta_v": 12.6,
"designation": null,
"earth_moid": 31.4005,
"eccentricity": "0.177599",
"epoch": "2023-09-13.0",
"epoch_jd": "2460200.5",
"first_observation_date_used": "1996-03-19.0",
"first_opposition_used": "1996",
"inclination": "13.54928",
"jupiter_moid": 27.1485,
"last_observation_date_used": "2023-11-21.0",
"last_opposition_used": "2023",
"mars_moid": 30.9519,
"mean_anomaly": "237.82193",
"mean_daily_motion": "0.003983",
"mercury_moid": 31.9542,
"name": "",
"number": 208996,
"observations": 443,
"oppositions": 22,
"orbit_type": 10,
"orbit_uncertainty": "2",
"p_vector_x": "-0.04314634",
"p_vector_y": "-0.94045863",
"p_vector_z": "-0.33715866",
"perihelion_date": "1860-03-21.82429",
"perihelion_date_jd": "2400491.3243",
"perihelion_distance": "32.4149809",
"period": "247.45",
"phase_slope": "0.15",
"q_vector_x": "0.97393422",
"q_vector_y": "-0.11481504",
"q_vector_z": "0.19562629",
"residual_rms": "0.52",
"saturn_moid": 22.3357,
"semimajor_axis": "39.41506",
"tisserand_jupiter": 5.4,
"updated_at": "2023-11-23T12:32:01Z",
"uranus_moid": 13.0768,
"venus_moid": 31.6903
},
{
"absolute_magnitude": "3.47",
"aphelion_distance": "49.287",
"arc_length": 13123,
"argument_of_perihelion": "299.88838",
"ascending_node": "71.0897241",
"delta_v": 13.0,
"designation": null,
"earth_moid": 28.8151,
"eccentricity": "0.2468661",
"epoch": "2023-09-13.0",
"epoch_jd": "2460200.5",
"first_observation_date_used": "1982-07-17.0",
"first_opposition_used": "1982",
"inclination": "19.66749",
"jupiter_moid": 25.032,
"last_observation_date_used": "2018-06-20.0",
"last_opposition_used": "2018",
"mars_moid": 28.4187,
"mean_anomaly": "292.05516",
"mean_daily_motion": "0.0039658",
"mercury_moid": 29.4305,
"name": "Ixion",
"number": 28978,
"observations": 184,
"oppositions": 19,
"orbit_type": 10,
"orbit_uncertainty": "3",
"p_vector_x": "0.93385072",
"p_vector_y": "0.30582948",
"p_vector_z": "-0.18544854",
"perihelion_date": "2070-08-09.51729",
"perihelion_date_jd": "2477333.0173",
"perihelion_distance": "29.7704058",
"period": "248.52",
"phase_slope": "0.15",
"q_vector_x": "-0.16293213",
"q_vector_y": "0.82533603",
"q_vector_z": "0.5406233",
"residual_rms": "0.49",
"saturn_moid": 20.7721,
"semimajor_axis": "39.5287",
"tisserand_jupiter": 5.2,
"updated_at": "2023-11-18T20:36:09Z",
"uranus_moid": 11.4703,
"venus_moid": 29.0664
}
]
